[{"OBJECT_NAME":"SITRO-AIS 8 (ANOKHIN)","OBJECT_ID":"2023-091AD","EPOCH":"2026-03-09T23:44:40.058592","MEAN_MOTION":15.29359179,"ECCENTRICITY":0.0012509,"INCLINATION":97.5169,"RA_OF_ASC_NODE":133.2823,"ARG_OF_PERICENTER":92.0171,"MEAN_ANOMALY":268.2501,"EPHEMERIS_TYPE":0,"CLASSIFICATION_TYPE":"U","NORAD_CAT_ID":57193,"ELEMENT_SET_NO":999,"REV_AT_EPOCH":14927,"BSTAR":0.00064982524,"MEAN_MOTION_DOT":0.00018494,"MEAN_MOTION_DDOT":0},{"OBJECT_NAME":"STARLINK-31292","OBJECT_ID":"2024-041H","EPOCH":"2026-03-08T16:52:06.264192","MEAN_MOTION":15.27564444,"ECCENTRICITY":6.26e-5,"INCLINATION":43.0018,"RA_OF_ASC_NODE":316.0203,"ARG_OF_PERICENTER":271.5751,"MEAN_ANOMALY":88.5029,"EPHEMERIS_TYPE":0,"CLASSIFICATION_TYPE":"U","NORAD_CAT_ID":59081,"ELEMENT_SET_NO":999,"REV_AT_EPOCH":11411,"BSTAR":0.00016992463,"MEAN_MOTION_DOT":4.415e-5,"MEAN_MOTION_DDOT":0}]
